SEEDS II (CO-66)        
1 32791U 08021J   26068.92109284  .00023758  00000+0  84213-3 0  9995
2 32791  97.7519  62.3611 0001448 359.2618   0.8619 15.29097235972108
STARLINK-35931          
1 66519U 25265D   26068.95828950  .00023059  00000+0  84454-3 0  9991
2 66519  42.9996 276.4938 0001391 249.1203 110.9500 15.27591459 17150
